{
    "links": {
        "self": "http://www.neowsapp.com/rest/v1/neo/3943338?api_key=iIulBulltgU6a56xZRHN4H3l9WmuAYTsLGpBGhQ2"
    },
    "id": "3943338",
    "neo_reference_id": "3943338",
    "name": "(2019 YN1)",
    "designation": "2019 YN1",
    "nasa_jpl_url": "http://ssd.jpl.nasa.gov/sbdb.cgi?sstr=3943338",
    "absolute_magnitude_h": 26.6,
    "estimated_diameter": {
        "kilometers": {
            "estimated_diameter_min": 0.0127219879,
            "estimated_diameter_max": 0.0284472297
        },
        "meters": {
            "estimated_diameter_min": 12.7219878539,
            "estimated_diameter_max": 28.4472296503
        },
        "miles": {
            "estimated_diameter_min": 0.0079050743,
            "estimated_diameter_max": 0.0176762835
        },
        "feet": {
            "estimated_diameter_min": 41.7388066307,
            "estimated_diameter_max": 93.330808926
        }
    },
    "is_potentially_hazardous_asteroid": false,
    "close_approach_data": [
        {
            "close_approach_date": "2019-12-16",
            "close_approach_date_full": "2019-Dec-16 14:21",
            "epoch_date_close_approach": 1576506060000,
            "relative_velocity": {
                "kilometers_per_second": "6.4541787041",
                "kilometers_per_hour": "23235.0433347553",
                "miles_per_hour": "14437.3523431984"
            },
            "miss_distance": {
                "astronomical": "0.0159095937",
                "lunar": "6.1888319493",
                "kilometers": "2380041.330085419",
                "miles": "1478889.1055160222"
            },
            "orbiting_body": "Earth"
        },
        {
            "close_approach_date": "2025-06-12",
            "close_approach_date_full": "2025-Jun-12 10:04",
            "epoch_date_close_approach": 1749722640000,
            "relative_velocity": {
                "kilometers_per_second": "13.1769278048",
                "kilometers_per_hour": "47436.9400974103",
                "miles_per_hour": "29475.4698066381"
            },
            "miss_distance": {
                "astronomical": "0.0872589625",
                "lunar": "33.9437364125",
                "kilometers": "13053754.928409875",
                "miles": "8111227.189911275"
            },
            "orbiting_body": "Mars"
        }
    ],
    "orbital_data": {
        "orbit_id": "3",
        "orbit_determination_date": "2019-12-31 06:18:33",
        "first_observation_date": "2019-12-20",
        "last_observation_date": "2019-12-30",
        "data_arc_in_days": 10,
        "observations_used": 33,
        "orbit_uncertainty": "7",
        "minimum_orbit_intersection": ".0141366",
        "jupiter_tisserand_invariant": "3.826",
        "epoch_osculation": "2459000.5",
        "eccentricity": ".4707720378322266",
        "semi_major_axis": "1.881013062379408",
        "inclination": "3.177780356395084",
        "ascending_node_longitude": "87.09049205720855",
        "orbital_period": "942.29338869618",
        "perihelion_distance": ".9954847098140169",
        "perihelion_argument": "347.9649276774947",
        "aphelion_distance": "2.7665414149448",
        "perihelion_time": "2458826.811596246154",
        "mean_anomaly": "66.35706681323754",
        "mean_motion": ".3820466155430847",
        "equinox": "J2000",
        "orbit_class": {
            "orbit_class_type": "APO",
            "orbit_class_description": "Near-Earth asteroid orbits which cross the Earth’s orbit similar to that of 1862 Apollo",
            "orbit_class_range": "a (semi-major axis) > 1.0 AU; q (perihelion) < 1.017 AU"
        }
    },
    "is_sentry_object": false
}